OUTPOST MISSION 2
1 58334U 23174CG  25355.47179988  .00021196  00000+0  44740-3 0  9993
2 58334  97.4092  78.3288 0007545  52.3920 307.8013 15.45198707118272